KUIPER-00133            
1 65764U 25217C   25354.35863157  .00002107  00000+0  30549-3 0  9995
2 65764  51.9046  43.8978 0011698  57.6463 302.5631 14.79913650 12996
KUIPER-00139            
1 65765U 25217D   25354.39928391  .00006384  00000+0  50487-3 0  9996
2 65765  51.8854  36.8785 0008589  47.2290 312.9403 15.01742837 13096
KUIPER-00142            
1 65766U 25217E   25354.91668981 -.00623831  00000+0 -38265-1 0  9993
2 65766  51.8841  26.6153 0003547  92.8232 117.8007 15.11905609  3595
KUIPER-00145            
1 65767U 25217F   25354.91668981  .00014529  00000+0  10646-2 0  9994
2 65767  51.8928  28.2235 0007118  40.0058   4.1365 15.03723476  5284
KUIPER-00147            
1 65768U 25217G   25354.91668981  .00027588  00000+0  23491-2 0  9996
2 65768  51.8921  30.4650 0010915  53.6751 299.8422 14.97542758  5891
KUIPER-00148            
1 65769U 25217H   25354.91668981  .00030262  00000+0  17756-2 0  9997
2 65769  51.8753  29.5909 0009919  72.9723  92.6864 15.11459444  5723
KUIPER-00150            
1 65770U 25217J   25354.91668981  .00062957  00000+0  85696-2 0  9993
2 65770  51.9016  38.9031 0000544 111.1789 343.7154 14.78122251  5593
KUIPER-00151            
1 65771U 25217K   25354.91668981 -.00008370  00000+0 -90020-3 0  9993
2 65771  51.8992  31.6982 0003401  75.6501 177.4162 14.87006492  5715
